ONEWEB-0236             
1 48797U 21045AG  26195.55648158  .00000089  00000+0  20297-3 0  9991
2 48797  87.8984 253.7529 0002136  95.2283 264.9092 13.15548649247859
ONEWEB-0248             
1 48798U 21045AH  26195.56915067 -.00000101  00000+0 -30174-3 0  9991
2 48798  87.8994 253.7369 0002432 106.7764 253.3634 13.15548971248015
ONEWEB-0225             
1 48799U 21045AJ  26195.59134206 -.00000039  00000+0 -13647-3 0  9999
2 48799  87.8988 253.7392 0002237 112.9368 247.1998 13.15547880248020
ONEWEB-0215             
1 48800U 21045AK  26195.56122601  .00000022  00000+0  24390-4 0  9993
2 48800  87.8998 253.7289 0002383 114.9914 245.1464 13.15549322247893
ONEWEB-0216             
1 48801U 21045AL  26195.57074094 -.00000077  00000+0 -23976-3 0  9997
2 48801  87.8993 253.7410 0002010  97.5480 262.5879 13.15548000247903
ONEWEB-0239             
1 48802U 21045AM  26195.57549649 -.00000126  00000+0 -36839-3 0  9998
2 48802  87.8981 253.7443 0002734 111.8230 248.3192 13.15547460247946
ONEWEB-0249             
1 48967U 21060A   26195.56377012  .00000040  00000+0  72245-4 0  9994
2 48967  87.9079 223.3400 0002163  95.7173 264.4204 13.16592779243218
ONEWEB-0250             
1 48968U 21060B   26195.62684927  .00000010  00000+0 -71540-5 0  9994
2 48968  87.9080 220.9944 0003080  86.9104 273.2385 13.25835337243850
ONEWEB-0252             
1 48970U 21060D   26195.59466520  .00000099  00000+0  22471-3 0  9993
2 48970  87.9079 223.3262 0001847  96.3558 263.7784 13.16595264243262
ONEWEB-0253             
1 48971U 21060E   26195.58358418  .00000000  00000+0 -34583-4 0  9990
2 48971  87.9079 223.3337 0002231  93.1411 266.9976 13.16594862243190
ONEWEB-0254             
1 48972U 21060F   26195.59308947  .00000046  00000+0  86139-4 0  9997
2 48972  87.9080 223.3301 0002307  99.7080 260.4311 13.16593684243195
ONEWEB-0255             
1 48973U 21060G   26195.55509007 -.00000048  00000+0 -15909-3 0  9994
2 48973  87.9082 223.3435 0002214  99.1526 260.9855 13.16593789243264
ONEWEB-0256             
1 48974U 21060H   26195.58119535  .00000022  00000+0  23526-4 0  9996
2 48974  87.9075 223.3413 0001851  93.7104 266.4238 13.16592658243238
ONEWEB-0257             
1 48975U 21060J   26195.61367026  .00000003  00000+0 -24862-4 0  9995
2 48975  87.9080 223.3234 0002031  99.1339 261.0022 13.16593982243195
ONEWEB-0258             
1 48976U 21060K   26195.61525359  .00000132  00000+0  31234-3 0  9993
2 48976  87.9082 223.3351 0002113  95.5408 264.5965 13.16594301243208
ONEWEB-0259             
1 48977U 21060L   26195.53292332  .00000181  00000+0  43866-3 0  9995
2 48977  87.9080 223.3502 0002244  97.6241 262.5145 13.16594318243226
ONEWEB-0260             
1 48978U 21060M   26195.60019437  .00000086  00000+0  19021-3 0  9997
2 48978  87.9073 223.3375 0001680  94.3175 265.8148 13.16595368243214
ONEWEB-0261             
1 48979U 21060N   26195.57013473 -.00000027  00000+0 -10496-3 0  9992
2 48979  87.9077 223.3441 0002053 102.9824 257.1537 13.16593722243268
ONEWEB-0262             
1 48980U 21060P   26195.62633659 -.00000077  00000+0 -23557-3 0  9991
2 48980  87.9082 223.3192 0002374  97.3160 262.8240 13.16593759243236
ONEWEB-0263             
1 48981U 21060Q   26195.58200299 -.00000038  00000+0 -13307-3 0  9996
2 48981  87.9081 223.3401 0002184 102.6050 257.5325 13.16593324243194
ONEWEB-0264             
1 48982U 21060R   26195.61919602  .00000104  00000+0  23853-3 0  9995
2 48982  87.9073 223.3350 0001909  97.8715 262.2633 13.16592916243209
ONEWEB-0266             
1 48984U 21060T   26195.56457697 -.00000007  00000+0 -53014-4 0  9999
2 48984  87.9082 223.3371 0002122  91.7037 268.4337 13.16595712243185
ONEWEB-0267             
1 48985U 21060U   26195.57567130  .00000018  00000+0  12479-4 0  9995
2 48985  87.9079 223.3320 0002034  99.3719 260.7642 13.16593941243196
ONEWEB-0268             
1 48986U 21060V   26195.62000283  .00000112  00000+0  25830-3 0  9992
2 48986  87.9081 223.3319 0001942  93.8307 266.3046 13.16593473243467
ONEWEB-0269             
1 48987U 21060W   26195.60100342  .00000141  00000+0  33489-3 0  9999
2 48987  87.9071 223.3370 0001957  88.2849 271.8506 13.16593445243235
ONEWEB-0270             
1 48988U 21060X   26195.61840506  .00000077  00000+0  16813-3 0  9994
2 48988  87.9087 223.3343 0002263 100.0539 260.0848 13.16593835243279
ONEWEB-0271             
1 48989U 21060Y   26195.60575513  .00000118  00000+0  27449-3 0  9990
2 48989  87.9079 223.3264 0002111 100.4418 259.6951 13.16594174243271
ONEWEB-0272             
1 48990U 21060Z   26195.62791455  .00000005  00000+0 -21204-4 0  9999
2 48990  87.9075 223.3325 0001827  99.3535 260.7803 13.16595897243223
ONEWEB-0273             
1 48991U 21060AA  26195.57408434  .00000029  00000+0  43423-4 0  9998
2 48991  87.9074 223.3446 0002141  97.3645 262.7729 13.16594206243195
ONEWEB-0274             
1 48992U 21060AB  26195.59940706  .00000146  00000+0  34750-3 0  9996
2 48992  87.9070 223.3391 0001723  94.8142 265.3186 13.16595536243238
